{
  "type": "FeatureCollection",
  "features": [
    {
      "type": "Feature",
      "properties": {
        "norad_id": 42939,
        "name": "COSMOS 2522 (752)",
        "group": "gnss",
        "lat": 7.863494214441666,
        "lon": -157.60147641361806,
        "alt_km": 19142.66680620926,
        "timestamp": "2025-12-03T10:52:57.693733+00:00",
        "meta_object_name": "COSMOS 2522 (752)",
        "meta_object_id": "2017-055A",
        "meta_epoch": "2025-12-02T23:20:47.282208",
        "meta_mean_motion": 2.1310185,
        "meta_eccentricity": 0.0006533,
        "meta_inclination": 64.0758,
        "meta_ra_of_asc_node": 198.5618,
        "meta_arg_of_pericenter": 226.0683,
        "meta_mean_anomaly": 133.9743,
        "meta_ephemeris_type": 0,
        "meta_classification_type": "U",
        "meta_norad_cat_id": 42939,
        "meta_element_set_no": 999,
        "meta_rev_at_epoch": 6379,
        "meta_bstar": 0,
        "meta_mean_motion_dot": 1.07e-06,
        "meta_mean_motion_ddot": 0,
        "tle_line1": "1 42939U 17055A   25336.97276947  .00000107  00000+0  00000+0 0  9991",
        "tle_line2": "2 42939  64.0758 198.5618 0006533 226.0683 133.9743  2.13101850 63797"
      },
      "geometry": {
        "type": "Point",
        "coordinates": [
          -157.60147641361806,
          7.863494214441666
        ]
      }
    },
    {
      "type": "Feature",
      "properties": {
        "norad_id": 42965,
        "name": "QZS-4 (QZSS/PRN 195)",
        "group": "gnss",
        "lat": 21.370321334038238,
        "lon": 13.56546852823402,
        "alt_km": 37360.16974889369,
        "timestamp": "2025-12-03T10:52:57.693745+00:00",
        "meta_object_name": "QZS-4 (QZSS/PRN 195)",
        "meta_object_id": "2017-062A",
        "meta_epoch": "2025-12-02T08:37:38.758368",
        "meta_mean_motion": 1.0025504,
        "meta_eccentricity": 0.07524683,
        "meta_inclination": 40.2317,
        "meta_ra_of_asc_node": 346.0052,
        "meta_arg_of_pericenter": 271.2474,
        "meta_mean_anomaly": 80.8165,
        "meta_ephemeris_type": 0,
        "meta_classification_type": "U",
        "meta_norad_cat_id": 42965,
        "meta_element_set_no": 999,
        "meta_rev_at_epoch": 2983,
        "meta_bstar": 0,
        "meta_mean_motion_dot": -3.15e-06,
        "meta_mean_motion_ddot": 0,
        "tle_line1": "1 42965U 17062A   25336.35947637 -.00000315  00000+0  00000+0 0  9993",
        "tle_line2": "2 42965  40.2317 346.0052 0752468 271.2474  80.8165  1.00255040 29831"
      },
      "geometry": {
        "type": "Point",
        "coordinates": [
          13.56546852823402,
          21.370321334038238
        ]
      }
    },
    {
      "type": "Feature",
      "properties": {
        "norad_id": 43001,
        "name": "BEIDOU-3 M1 (C19)",
        "group": "gnss",
        "lat": -22.323352035807375,
        "lon": -94.71387116251732,
        "alt_km": 21533.98924305329,
        "timestamp": "2025-12-03T10:52:57.693757+00:00",
        "meta_object_name": "BEIDOU-3 M1 (C19)",
        "meta_object_id": "2017-069A",
        "meta_epoch": "2025-12-03T03:27:53.485056",
        "meta_mean_motion": 1.86230745,
        "meta_eccentricity": 0.0008837,
        "meta_inclination": 56.5186,
        "meta_ra_of_asc_node": 69.5514,
        "meta_arg_of_pericenter": 303.7187,
        "meta_mean_anomaly": 56.1997,
        "meta_ephemeris_type": 0,
        "meta_classification_type": "U",
        "meta_norad_cat_id": 43001,
        "meta_element_set_no": 999,
        "meta_rev_at_epoch": 5495,
        "meta_bstar": 0,
        "meta_mean_motion_dot": -4.9e-07,
        "meta_mean_motion_ddot": 0,
        "tle_line1": "1 43001U 17069A   25337.14436904 -.00000049  00000+0  00000+0 0  9994",
        "tle_line2": "2 43001  56.5186  69.5514 0008837 303.7187  56.1997  1.86230745 54952"
      },
      "geometry": {
        "type": "Point",
        "coordinates": [
          -94.71387116251732,
          -22.323352035807375
        ]
      }
    },
    {
      "type": "Feature",
      "properties": {
        "norad_id": 43002,
        "name": "BEIDOU-3 M2 (C20)",
        "group": "gnss",
        "lat": -50.90863306911537,
        "lon": -55.9904020257439,
        "alt_km": 21531.94083424881,
        "timestamp": "2025-12-03T10:52:57.693769+00:00",
        "meta_object_name": "BEIDOU-3 M2 (C20)",
        "meta_object_id": "2017-069B",
        "meta_epoch": "2025-12-01T11:19:28.056000",
        "meta_mean_motion": 1.86230616,
        "meta_eccentricity": 0.00061649,
        "meta_inclination": 56.5166,
        "meta_ra_of_asc_node": 69.6425,
        "meta_arg_of_pericenter": 332.397,
        "meta_mean_anomaly": 27.5733,
        "meta_ephemeris_type": 0,
        "meta_classification_type": "U",
        "meta_norad_cat_id": 43002,
        "meta_element_set_no": 999,
        "meta_rev_at_epoch": 5491,
        "meta_bstar": 0,
        "meta_mean_motion_dot": -4.1e-07,
        "meta_mean_motion_ddot": 0,
        "tle_line1": "1 43002U 17069B   25335.47185250 -.00000041  00000+0  00000+0 0  9996",
        "tle_line2": "2 43002  56.5166  69.6425 0006164 332.3970  27.5733  1.86230616 54915"
      },
      "geometry": {
        "type": "Point",
        "coordinates": [
          -55.9904020257439,
          -50.90863306911537
        ]
      }
    },
    {
      "type": "Feature",
      "properties": {
        "norad_id": 43055,
        "name": "GSAT0215 (GALILEO 19)",
        "group": "gnss",
        "lat": -30.765745427699112,
        "lon": 71.37994017138953,
        "alt_km": 23226.290930606698,
        "timestamp": "2025-12-03T10:52:57.693782+00:00",
        "meta_object_name": "GSAT0215 (GALILEO 19)",
        "meta_object_id": "2017-079A",
        "meta_epoch": "2025-11-29T13:52:03.216864",
        "meta_mean_motion": 1.70473718,
        "meta_eccentricity": 0.0001588,
        "meta_inclination": 55.1353,
        "meta_ra_of_asc_node": 227.0004,
        "meta_arg_of_pericenter": 310.5234,
        "meta_mean_anomaly": 49.536,
        "meta_ephemeris_type": 0,
        "meta_classification_type": "U",
        "meta_norad_cat_id": 43055,
        "meta_element_set_no": 999,
        "meta_rev_at_epoch": 4958,
        "meta_bstar": 0,
        "meta_mean_motion_dot": 2.7e-07,
        "meta_mean_motion_ddot": 0,
        "tle_line1": "1 43055U 17079A   25333.57781501  .00000027  00000+0  00000+0 0  9998",
        "tle_line2": "2 43055  55.1353 227.0004 0001588 310.5234  49.5360  1.70473718 49587"
      },
      "geometry": {
        "type": "Point",
        "coordinates": [
          71.37994017138953,
          -30.765745427699112
        ]
      }
    },
    {
      "type": "Feature",
      "properties": {
        "norad_id": 43056,
        "name": "GSAT0216 (GALILEO 20)",
        "group": "gnss",
        "lat": 31.676341848891177,
        "lon": -107.6635441227452,
        "alt_km": 23217.92775949449,
        "timestamp": "2025-12-03T10:52:57.693795+00:00",
        "meta_object_name": "GSAT0216 (GALILEO 20)",
        "meta_object_id": "2017-079B",
        "meta_epoch": "2025-12-01T01:00:54.249120",
        "meta_mean_motion": 1.70473856,
        "meta_eccentricity": 0.00027137,
        "meta_inclination": 55.1346,
        "meta_ra_of_asc_node": 226.9601,
        "meta_arg_of_pericenter": 312.5245,
        "meta_mean_anomaly": 47.5297,
        "meta_ephemeris_type": 0,
        "meta_classification_type": "U",
        "meta_norad_cat_id": 43056,
        "meta_element_set_no": 999,
        "meta_rev_at_epoch": 4962,
        "meta_bstar": 0,
        "meta_mean_motion_dot": 3.1e-07,
        "meta_mean_motion_ddot": 0,
        "tle_line1": "1 43056U 17079B   25335.04229455  .00000031  00000+0  00000+0 0  9993",
        "tle_line2": "2 43056  55.1346 226.9601 0002713 312.5245  47.5297  1.70473856 49621"
      },
      "geometry": {
        "type": "Point",
        "coordinates": [
          -107.6635441227452,
          31.676341848891177
        ]
      }
    },
    {
      "type": "Feature",
      "properties": {
        "norad_id": 43057,
        "name": "GSAT0217 (GALILEO 21)",
        "group": "gnss",
        "lat": -54.74548565480306,
        "lon": 126.96052611379936,
        "alt_km": 23228.0997404034,
        "timestamp": "2025-12-03T10:52:57.693806+00:00",
        "meta_object_name": "GSAT0217 (GALILEO 21)",
        "meta_object_id": "2017-079C",
        "meta_epoch": "2025-12-02T10:28:08.868000",
        "meta_mean_motion": 1.70473685,
        "meta_eccentricity": 0.0002612,
        "meta_inclination": 55.1312,
        "meta_ra_of_asc_node": 226.9197,
        "meta_arg_of_pericenter": 354.1722,
        "meta_mean_anomaly": 5.9091,
        "meta_ephemeris_type": 0,
        "meta_classification_type": "U",
        "meta_norad_cat_id": 43057,
        "meta_element_set_no": 999,
        "meta_rev_at_epoch": 4963,
        "meta_bstar": 0,
        "meta_mean_motion_dot": 3.7e-07,
        "meta_mean_motion_ddot": 0,
        "tle_line1": "1 43057U 17079C   25336.43621375  .00000037  00000+0  00000+0 0  9991",
        "tle_line2": "2 43057  55.1312 226.9197 0002612 354.1722   5.9091  1.70473685 49636"
      },
      "geometry": {
        "type": "Point",
        "coordinates": [
          126.96052611379936,
          -54.74548565480306
        ]
      }
    }
  ]
}